NORAD_CAT_ID,OBJECT_NAME,OBJECT_TYPE,EPOCH,MEAN_MOTION,ECCENTRICITY,INCLINATION,RA_OF_ASC_NODE,ARG_OF_PERICENTER,MEAN_ANOMALY,BSTAR,MEAN_MOTION_DOT,MEAN_MOTION_DDOT,TLE_LINE0,TLE_LINE1,TLE_LINE2,SEMIMAJOR_AXIS,PERIOD,APOGEE,PERIGEE,DECAYED
52132.0,STARLINK-3718,PAYLOAD,2022-07-22 06:00:00,15.0883193,0.0002003,53.2138,263.7355,43.2682,92.4562,-0.00054486,-8.947e-05,0.0,0 STARLINK-3718,1 52132U 22029AW  22203.25001157 -.00008947  00000-0 -54486-3 0  9998,2 52132  53.2138 263.7355 0002003  43.2682  92.4562 15.08831930  1308,6917.905,95.438,541.156,538.384,0.0
52132.0,STARLINK-3718,PAYLOAD,2022-07-22 22:00:00,15.08832288,0.0002051,53.2138,260.7426,40.5843,118.3076,0.00044713,6.834e-05,0.0,0 STARLINK-3718,1 52132U 22029AW  22203.91667824  .00006834  00000-0  44713-3 0  9993,2 52132  53.2138 260.7426 0002051  40.5843 118.3076 15.08832288 20784,6917.904,95.438,541.188,538.35,0.0
52132.0,STARLINK-3718,PAYLOAD,2022-07-23 14:00:01,15.08816298,0.0002292,53.2139,257.7513,38.6624,143.4687,0.0032038,0.00051038,0.0,0 STARLINK-3718,1 52132U 22029AW  22204.58335648  .00051038  00000-0  32038-2 0  9995,2 52132  53.2139 257.7513 0002292  38.6624 143.4687 15.08816298  1307,6917.953,95.439,541.403,538.232,0.0
52132.0,STARLINK-3718,PAYLOAD,2022-07-23 22:00:00,15.08842753,0.0002133999999999,53.2141,256.2531,41.4141,152.2527,0.00087496,0.00013666,0.0,0 STARLINK-3718,1 52132U 22029AW  22204.91667824  .00013666  00000-0  87496-3 0  9990,2 52132  53.2141 256.2531 0002134  41.4141 152.2527 15.08842753  1301,6917.871999999999,95.437,541.2130000000002,538.261,0.0
52132.0,STARLINK-3718,PAYLOAD,2022-07-24 06:00:00,15.08866715,0.0002193,53.2142,254.7571,43.5968,161.6655,-0.0011515,-0.00018582,0.0,0 STARLINK-3718,1 52132U 22029AW  22205.25001157 -.00018582  00000-0 -11515-2 0  9991,2 52132  53.2142 254.7571 0002193  43.5968 161.6655 15.08866715 20990,6917.799,95.436,541.181,538.1469999999998,0.0
52132.0,STARLINK-3718,PAYLOAD,2022-07-24 14:00:01,15.08843649,0.0002346,53.2141,253.262,38.7067,178.1783,0.00093287,0.00014591,0.0,0 STARLINK-3718,1 52132U 22029AW  22205.58334491  .00014591  00000-0  93287-3 0  9998,2 52132  53.2141 253.2620 0002346  38.7067 178.1783 15.08843649  1304,6917.869000000002,95.437,541.357,538.111,0.0
52132.0,STARLINK-3718,PAYLOAD,2022-07-24 22:00:00,15.08827908,0.0002126,53.2143,251.7638,40.0932,188.4063,0.00065476,0.00010144,0.0,0 STARLINK-3718,1 52132U 22029AW  22205.91667824  .00010144  00000-0  65476-3 0  9993,2 52132  53.2143 251.7638 0002126  40.0932 188.4063 15.08827908  1306,6917.917,95.438,541.253,538.312,0.0
52132.0,STARLINK-3718,PAYLOAD,2022-07-25 14:00:01,15.08819237,0.0002348,53.2141,248.7727,37.9572,213.7261,0.0028035,0.00044588,0.0,0 STARLINK-3718,1 52132U 22029AW  22206.58334491  .00044588  00000-0  28035-2 0  9996,2 52132  53.2141 248.7727 0002348  37.9572 213.7261 15.08819237  1308,6917.944,95.439,541.433,538.185,0.0
52132.0,STARLINK-3718,PAYLOAD,2022-07-25 22:00:00,15.08827192,0.0002154,53.2142,247.2745,41.4958,221.783,0.0015714,0.00024801,0.0,0 STARLINK-3718,1 52132U 22029AW  22206.91667824  .00024801  00000-0  15714-2 0  9998,2 52132  53.2142 247.2745 0002154  41.4958 221.7830 15.08827192  1306,6917.92,95.438,541.275,538.294,0.0
52132.0,STARLINK-3718,PAYLOAD,2022-07-26 06:00:00,15.08859239,0.0002207,53.2141,245.7789,42.4728,232.3914,-0.0016614,-0.00026647,0.0,0 STARLINK-3718,1 52132U 22029AW  22207.25001157 -.00026647  00000-0 -16614-2 0  9999,2 52132  53.2141 245.7789 0002207  42.4728 232.3914 15.08859239 21299,6917.821999999999,95.436,541.2130000000002,538.16,0.0
52132.0,STARLINK-3718,PAYLOAD,2022-07-26 14:00:01,15.08829574,0.0002351,53.2137,244.2835,38.7769,247.6987,0.0022351,0.00035454,0.0,0 STARLINK-3718,1 52132U 22029AW  22207.58334491  .00035454  00000-0  22351-2 0  9994,2 52132  53.2137 244.2835 0002351  38.7769 247.6987 15.08829574  1301,6917.9119999999975,95.438,541.404,538.151,0.0
52132.0,STARLINK-3718,PAYLOAD,2022-07-26 22:00:00,15.08828899,0.0002154,53.2137,242.7853,43.0282,255.0538,0.0020203,0.00032002,0.0,0 STARLINK-3718,1 52132U 22029AW  22207.91667824  .00032002  00000-0  20203-2 0  9990,2 52132  53.2137 242.7853 0002154  43.0282 255.0538 15.08828899  1308,6917.9140000000025,95.438,541.269,538.289,0.0
52132.0,STARLINK-3718,PAYLOAD,2022-07-27 14:00:01,15.08825281,0.0002319,53.213,239.7941,38.4871,282.79,0.0016605,0.00026228,0.0,0 STARLINK-3718,1 52132U 22029AW  22208.58334491  .00026228  00000-0  16605-2 0  9999,2 52132  53.2130 239.7941 0002319  38.4871 282.7900 15.08825281  1302,6917.925,95.438,541.395,538.186,0.0
52132.0,STARLINK-3718,PAYLOAD,2022-07-27 22:00:00,15.08817109,0.0002129,53.2129,238.2959,43.31399999999999,289.562,0.0024430999999999,0.00038784,0.0,0 STARLINK-3718,1 52132U 22029AW  22208.91667824  .00038784  00000-0  24431-2 0  9991,2 52132  53.2129 238.2959 0002129  43.3140 289.5620 15.08817109 21548,6917.95,95.439,541.288,538.3430000000002,0.0
52132.0,STARLINK-3718,PAYLOAD,2022-07-28 14:00:01,15.08832748,0.0002346,53.2132,235.3046,39.8116,316.2452,0.0011237999999999,0.00017639,0.0,0 STARLINK-3718,1 52132U 22029AW  22209.58334491  .00017639  00000-0  11238-2 0  9993,2 52132  53.2132 235.3046 0002346  39.8116 316.2452 15.08832748  1300,6917.903,95.438,541.39,538.145,0.0
52132.0,STARLINK-3718,PAYLOAD,2022-07-28 22:00:00,15.08817599,0.000217,53.214,233.8064,44.9079,322.7524,0.0026306999999999,0.00041803,0.0,0 STARLINK-3718,1 52132U 22029AW  22209.91667824  .00041803  00000-0  26307-2 0  9992,2 52132  53.2140 233.8064 0002170  44.9079 322.7524 15.08817599 21695,6917.949000000001,95.439,541.315,538.313,0.0
52132.0,STARLINK-3718,PAYLOAD,2022-07-29 14:00:01,15.08836023,0.0002407,53.2138,230.8151,40.9253,349.9166,0.00061666,9.539e-05,0.0,0 STARLINK-3718,1 52132U 22029AW  22210.58334491  .00009539  00000-0  61666-3 0  9996,2 52132  53.2138 230.8151 0002407  40.9253 349.9166 15.08836023  1301,6917.893,95.438,541.423,538.092,0.0
52132.0,STARLINK-3718,PAYLOAD,2022-07-29 22:00:00,15.08818428,0.0002245,53.2139,229.3168,45.8614,356.587,0.0027343,0.00043472,0.0,0 STARLINK-3718,1 52132U 22029AW  22210.91667824  .00043472  00000-0  27343-2 0  9999,2 52132  53.2139 229.3168 0002245  45.8614 356.5870 15.08818428  1303,6917.946,95.439,541.364,538.258,0.0
52132.0,STARLINK-3718,PAYLOAD,2022-07-30 14:00:01,15.08843529,0.0002508999999999,53.214,226.3254,41.9579,23.6768,0.00031711,4.763e-05,0.0,0 STARLINK-3718,1 52132U 22029AW  22211.58334491  .00004763  00000-0  31711-3 0  9999,2 52132  53.2140 226.3254 0002509  41.9579  23.6768 15.08843529  1306,6917.87,95.437,541.47,537.999,0.0
52132.0,STARLINK-3718,PAYLOAD,2022-07-30 22:00:00,15.08823376,0.0002355999999999,53.2142,224.8272,46.6599,30.5852,0.0026931999999999,0.00042816,0.0,0 STARLINK-3718,1 52132U 22029AW  22211.91667824  .00042816  00000-0  26932-2 0  9994,2 52132  53.2142 224.8272 0002356  46.6599  30.5852 15.08823376 21991,6917.931,95.439,541.4259999999998,538.1659999999998,0.0
52132.0,STARLINK-3718,PAYLOAD,2022-07-31 14:00:01,15.08858931,0.0002577,53.2145,221.8358,42.2948,58.146,-0.0029370999999999,-0.00046756,0.0,0 STARLINK-3718,1 52132U 22029AW  22212.58334491 -.00046756  00000-0 -29371-2 0  9998,2 52132  53.2145 221.8358 0002577  42.2948  58.1460 15.08858931 22099,6917.823,95.436,541.47,537.905,0.0
52132.0,STARLINK-3718,PAYLOAD,2022-07-31 22:00:00,15.088034699999998,0.0002381999999999,53.2149,220.3377,45.9606,66.0867,0.0025109999999999,0.00039862,0.0,0 STARLINK-3718,1 52132U 22029AW  22212.91667824  .00039862  00000-0  25110-2 0  9999,2 52132  53.2149 220.3377 0002382  45.9606  66.0867 15.08803470  1301,6917.9919999999975,95.44,541.505,538.2090000000002,0.0
52132.0,STARLINK-3718,PAYLOAD,2022-08-01 04:00:00,15.08841969,0.0002499,53.2153,219.2163,45.8777,344.8377,-0.0020218,-0.00032325,0.0,0 STARLINK-3718,1 52132U 22029AW  22213.16667824 -.00032325  00000-0 -20218-2 0  9990,2 52132  53.2153 219.2163 0002499  45.8777 344.8377 15.08841969 22180,6917.874,95.437,541.4680000000002,538.011,0.0
52132.0,STARLINK-3718,PAYLOAD,2022-08-01 14:00:01,15.08833525,0.0002622,53.2152,217.3464,43.0433,92.1462,-0.00060185,-9.853e-05,0.0,0 STARLINK-3718,1 52132U 22029AW  22213.58334491 -.00009853  00000-0 -60185-3 0  9995,2 52132  53.2152 217.3464 0002622  43.0433  92.1462 15.08833525  1307,6917.9,95.438,541.5790000000002,537.951,0.0
52132.0,STARLINK-3718,PAYLOAD,2022-08-01 22:00:00,15.08810618,0.0002460999999999,53.2156,215.8484,47.6883,99.0898,0.0022853,0.00036242,0.0,0 STARLINK-3718,1 52132U 22029AW  22213.91667824  .00036242  00000-0  22853-2 0  9990,2 52132  53.2156 215.8484 0002461  47.6883  99.0898 15.08810618 22294,6917.97,95.439,541.538,538.133,0.0
52132.0,STARLINK-3718,PAYLOAD,2022-08-02 14:00:01,15.08842582,0.0002663,53.2157,212.857,44.9956,124.9389,-0.0011683,-0.00018836,0.0,0 STARLINK-3718,1 52132U 22029AW  22214.58334491 -.00018836  00000-0 -11683-2 0  9995,2 52132  53.2157 212.8570 0002663  44.9956 124.9389 15.08842582  1300,6917.871999999999,95.437,541.58,537.895,0.0
52132.0,STARLINK-3718,PAYLOAD,2022-08-03 12:00:00,15.08828585,0.0002708,53.2158,208.7425,45.572,66.2346,0.0012183,0.00019149,0.0,0 STARLINK-3718,1 52132U 22029AW  22215.50001157  .00019149  00000-0  12183-2 0  9990,2 52132  53.2158 208.7425 0002708  45.5720  66.2346 15.08828585 22536,6917.915,95.438,541.654,537.9069999999998,0.0
52132.0,STARLINK-3718,PAYLOAD,2022-08-03 14:00:01,15.08850488,0.0002668,53.2158,208.3679,47.0342,157.6637,-0.0016616,-0.00026645,0.0,0 STARLINK-3718,1 52132U 22029AW  22215.58334491 -.00026645  00000-0 -16616-2 0  9994,2 52132  53.2158 208.3679 0002668  47.0342 157.6637 15.08850488  1302,6917.848000000001,95.437,541.559,537.868,0.0
52132.0,STARLINK-3718,PAYLOAD,2022-08-03 22:00:01,15.08824865,0.0002525,53.2159,206.8703,51.8649,164.4957,0.0019529,0.00030917,0.0,0 STARLINK-3718,1 52132U 22029AW  22215.91668981  .00030917  00000-0  19529-2 0  9996,2 52132  53.2159 206.8703 0002525  51.8649 164.4957 15.08824865  1300,6917.927,95.439,541.538,538.045,0.0
